NORAD_CAT_ID,OBJECT_NAME,OBJECT_TYPE,EPOCH,MEAN_MOTION,ECCENTRICITY,INCLINATION,RA_OF_ASC_NODE,ARG_OF_PERICENTER,MEAN_ANOMALY,BSTAR,MEAN_MOTION_DOT,MEAN_MOTION_DDOT,TLE_LINE0,TLE_LINE1,TLE_LINE2,SEMIMAJOR_AXIS,PERIOD,APOGEE,PERIGEE,DECAYED
49174.0,STARLINK-3047,PAYLOAD,2024-01-07 13:34:12,15.01549149,0.0004383,69.9982,110.3033,278.0364,82.03,0.00077653,9.996e-05,0.0,0 STARLINK-3047,1 49174U 21082AW  24007.56541800  .00009996  00000-0  77653-3 0  9994,2 49174  69.9982 110.3033 0004383 278.0364  82.0300 15.01549149129025,6940.256,95.901,565.163,559.079,0.0
49174.0,STARLINK-3047,PAYLOAD,2024-01-07 16:46:03,15.01551649,0.0004462,69.9981,109.9652,280.0421,80.0236,0.00077313,9.952e-05,0.0,0 STARLINK-3047,1 49174U 21082AW  24007.69865194  .00009952  00000-0  77313-3 0  9998,2 49174  69.9981 109.9652 0004462 280.0421  80.0236 15.01551649129046,6940.248,95.901,565.21,559.016,0.0
49174.0,STARLINK-3047,PAYLOAD,2024-01-08 13:33:06,15.01571127,0.0004468,69.9985,107.7705,280.2785,79.7872,0.00083686,0.00010788,0.0,0 STARLINK-3047,1 49174U 21082AW  24008.56466410  .00010788  00000-0  83686-3 0  9992,2 49174  69.9985 107.7705 0004468 280.2785  79.7872 15.01571127129174,6940.188,95.9,565.154,558.952,0.0
49174.0,STARLINK-3047,PAYLOAD,2024-01-08 16:44:58,15.0157319,0.0004477,69.9985,107.4329,280.2616,79.804,0.00079152,0.00010198,0.0,0 STARLINK-3047,1 49174U 21082AW  24008.69789609  .00010198  00000-0  79152-3 0  9992,2 49174  69.9985 107.4329 0004477 280.2616  79.8040 15.01573190129198,6940.182,95.899,565.154,558.94,0.0
49174.0,STARLINK-3047,PAYLOAD,2024-01-09 13:32:00,15.01594286,0.0004481,69.9987,105.2385,281.0274,79.0382,0.00090752,0.00011715,0.0,0 STARLINK-3047,1 49174U 21082AW  24009.56389552  .00011715  00000-0  90752-3 0  9997,2 49174  69.9987 105.2385 0004481 281.0274  79.0382 15.01594286129327,6940.117,95.898,565.092,558.872,0.0
49174.0,STARLINK-3047,PAYLOAD,2024-01-09 16:43:51,15.01597669,0.0004478,69.9987,104.9009,281.1478,78.9179,0.00089826,0.00011596,0.0,0 STARLINK-3047,1 49174U 21082AW  24009.69712512  .00011596  00000-0  89826-3 0  9994,2 49174  69.9987 104.9009 0004478 281.1478  78.9179 15.01597669129341,6940.106,95.898,565.079,558.863,0.0
49174.0,STARLINK-3047,PAYLOAD,2024-01-10 08:43:06,15.01614464,0.0004495,69.9989,103.213,281.9844,78.0812,0.00092879,0.00011999,0.0,0 STARLINK-3047,1 49174U 21082AW  24010.36326862  .00011999  00000-0  92879-3 0  9998,2 49174  69.9989 103.2130 0004495 281.9844  78.0812 15.01614464129443,6940.054,95.897,565.039,558.8,0.0
49174.0,STARLINK-3047,PAYLOAD,2024-01-11 11:53:47,15.01647931,0.0004508,69.9989,100.3429,281.5161,78.5493,0.0010798,0.00013982,0.0,0 STARLINK-3047,1 49174U 21082AW  24011.49569342  .00013982  00000-0  10798-2 0  9998,2 49174  69.9989 100.3429 0004508 281.5161  78.5493 15.01647931129619,6939.951,95.895,564.945,558.688,0.0
49174.0,STARLINK-3047,PAYLOAD,2024-01-11 13:29:43,15.01651511,0.0004494,69.9988,100.174,281.1749,78.8907,0.0011652,0.00015099,0.0,0 STARLINK-3047,1 49174U 21082AW  24011.56230563  .00015099  00000-0  11652-2 0  9997,2 49174  69.9988 100.1740 0004494 281.1749  78.8907 15.01651511129627,6939.94,95.894,564.924,558.687,0.0
49174.0,STARLINK-3047,PAYLOAD,2024-01-11 15:05:38,15.01653374,0.0004497,69.9988,100.0052,281.19,78.8755,0.0011476,0.0001487,0.0,0 STARLINK-3047,1 49174U 21082AW  24011.62891797  .00014870  00000-0  11476-2 0  9996,2 49174  69.9988 100.0052 0004497 281.1900  78.8755 15.01653374129635,6939.935,95.894,564.92,558.679,0.0
49174.0,STARLINK-3047,PAYLOAD,2024-01-12 13:28:31,15.0168166,0.0004519,69.9986,97.6412,280.1561,79.909,0.0011165,0.00014474,0.0,0 STARLINK-3047,1 49174U 21082AW  24012.56148035  .00014474  00000-0  11165-2 0  9995,2 49174  69.9986  97.6412 0004519 280.1561  79.9090 15.01681660129779,6939.847,95.892,564.849,558.576,0.0
49174.0,STARLINK-3047,PAYLOAD,2024-01-12 15:04:27,15.01683539,0.0004549,69.9985,97.4723,280.75,79.3148,0.001099,0.00014246,0.0,0 STARLINK-3047,1 49174U 21082AW  24012.62809139  .00014246  00000-0  10990-2 0  9993,2 49174  69.9985  97.4723 0004549 280.7500  79.3148 15.01683539129789,6939.842,95.892,564.864,558.55,0.0
49174.0,STARLINK-3047,PAYLOAD,2024-01-13 13:27:18,15.01712438,0.0004599,69.9984,95.1083,280.5052,79.5591,0.0011582,0.00015032,0.0,0 STARLINK-3047,1 49174U 21082AW  24013.56063510  .00015032  00000-0  11582-2 0  9994,2 49174  69.9984  95.1083 0004599 280.5052  79.5591 15.01712438129928,6939.753,95.891,564.809,558.426,0.0
49174.0,STARLINK-3047,PAYLOAD,2024-01-14 03:50:34,15.01731621,0.000463,69.9982,93.5884,280.4318,79.6321,0.0012204,0.00015854,0.0,0 STARLINK-3047,1 49174U 21082AW  24014.16011803  .00015854  00000-0  12204-2 0  9993,2 49174  69.9982  93.5884 0004630 280.4318  79.6321 15.01731621130016,6939.694,95.889,564.772,558.345,0.0
49174.0,STARLINK-3047,PAYLOAD,2024-01-14 13:26:04,15.01743631,0.0004634,69.9981,92.5748,280.43,79.6339,0.0012185,0.00015834,0.0,0 STARLINK-3047,1 49174U 21082AW  24014.55976962  .00015834  00000-0  12185-2 0  9998,2 49174  69.9981  92.5748 0004634 280.4300  79.6339 15.01743631130077,6939.657,95.889,564.737,558.306,0.0
49174.0,STARLINK-3047,PAYLOAD,2024-01-14 15:01:59,15.01745765,0.0004639,69.9981,92.4059,280.4929,79.5709,0.0012117,0.00015746,0.0,0 STARLINK-3047,1 49174U 21082AW  24014.62637787  .00015746  00000-0  12117-2 0  9992,2 49174  69.9981  92.4059 0004639 280.4929  79.5709 15.01745765130084,6939.65,95.888,564.734,558.296,0.0
49174.0,STARLINK-3047,PAYLOAD,2024-01-15 11:48:52,15.01775702,0.0004643,69.9981,90.2106,280.7887,79.2751,0.0013081,0.00017023,0.0,0 STARLINK-3047,1 49174U 21082AW  24015.49227533  .00017023  00000-0  13081-2 0  9993,2 49174  69.9981  90.2106 0004643 280.7887  79.2751 15.01775702130217,6939.558,95.886,564.645,558.201,0.0
49174.0,STARLINK-3047,PAYLOAD,2024-01-15 13:24:47,15.01776202,0.000464,69.998,90.0416,280.739,79.3248,0.0011966,0.00015561,0.0,0 STARLINK-3047,1 49174U 21082AW  24015.55888229  .00015561  00000-0  11966-2 0  9990,2 49174  69.9980  90.0416 0004640 280.7390  79.3248 15.01776202130223,6939.556,95.886,564.641,558.201,0.0
49174.0,STARLINK-3047,PAYLOAD,2024-01-15 15:00:42,15.01778116,0.000464,69.998,89.8727,280.7963,79.2675,0.0011691,0.00015201,0.0,0 STARLINK-3047,1 49174U 21082AW  24015.62548909  .00015201  00000-0  11691-2 0  9992,2 49174  69.9980  89.8727 0004640 280.7963  79.2675 15.01778116130230,6939.55,95.886,564.635,558.195,0.0
49174.0,STARLINK-3047,PAYLOAD,2024-01-16 13:23:29,15.01805642,0.0004652,69.998,87.508,283.0002,77.0639,0.0010812,0.00014059,0.0,0 STARLINK-3047,1 49174U 21082AW  24016.55797468  .00014059  00000-0  10812-2 0  9995,2 49174  69.9980  87.5080 0004652 283.0002  77.0639 15.01805642130376,6939.465,95.885,564.559,558.102,0.0
49174.0,STARLINK-3047,PAYLOAD,2024-01-16 14:59:23,15.01807184,0.0004657,69.9979,87.339,283.3022,76.7619,0.0010503,0.00013654,0.0,0 STARLINK-3047,1 49174U 21082AW  24016.62458026  .00013654  00000-0  10503-2 0  9994,2 49174  69.9979  87.3390 0004657 283.3022  76.7619 15.01807184130384,6939.461,95.884,564.557,558.094,0.0
49174.0,STARLINK-3047,PAYLOAD,2024-01-17 13:22:09,15.01831762,0.0004591,69.9979,84.9752,281.8467,78.2178,0.00099203,0.00012898,0.0,0 STARLINK-3047,1 49174U 21082AW  24017.55704862  .00012898  00000-0  99203-3 0  9993,2 49174  69.9979  84.9752 0004591 281.8467  78.2178 15.01831762130524,6939.385,95.883,564.436,558.064,0.0
49174.0,STARLINK-3047,PAYLOAD,2024-01-18 11:44:53,15.01853774,0.0004525,69.9981,82.6111,280.9613,79.1039,0.00090077,0.00011708,0.0,0 STARLINK-3047,1 49174U 21082AW  24018.48950264  .00011708  00000-0  90077-3 0  9994,2 49174  69.9981  82.6111 0004525 280.9613  79.1039 15.01853774130669,6939.317,95.882,564.322,558.042,0.0
49174.0,STARLINK-3047,PAYLOAD,2024-01-18 13:20:47,15.01855989,0.0004525,69.9981,82.4422,280.8352,79.23,0.00093264,0.00012127,0.0,0 STARLINK-3047,1 49174U 21082AW  24018.55610595  .00012127  00000-0  93264-3 0  9999,2 49174  69.9981  82.4422 0004525 280.8352  79.2300 15.01855989130674,6939.31,95.881,564.315,558.035,0.0
49174.0,STARLINK-3047,PAYLOAD,2024-01-19 13:19:24,15.01880323,0.0004483,69.9985,79.9094,278.794,81.2713,0.00092402,0.00012021,0.0,0 STARLINK-3047,1 49174U 21082AW  24019.55514699  .00012021  00000-0  92402-3 0  9994,2 49174  69.9985  79.9094 0004483 278.7940  81.2713 15.01880323130824,6939.235,95.88,564.211,557.99,0.0
49174.0,STARLINK-3047,PAYLOAD,2024-01-20 13:18:00,15.01902172,0.000458,69.9986,77.3758,279.2449,80.8193,0.00082305,0.00010701,0.0,0 STARLINK-3047,1 49174U 21082AW  24020.55417274  .00010701  00000-0  82305-3 0  9991,2 49174  69.9986  77.3758 0004580 279.2449  80.8193 15.01902172130972,6939.168,95.878,564.211,557.855,0.0
49174.0,STARLINK-3047,PAYLOAD,2024-01-21 06:52:58,15.0191757,0.0004633,69.9986,75.5179,278.8078,81.2558,0.00080628,0.00010485,0.0,0 STARLINK-3047,1 49174U 21082AW  24021.28678246  .00010485  00000-0  80628-3 0  9995,2 49174  69.9986  75.5179 0004633 278.8078  81.2558 15.01917570131082,6939.121,95.877,564.201,557.771,0.0
49174.0,STARLINK-3047,PAYLOAD,2024-01-21 13:16:35,15.01923802,0.000466,69.9986,74.8422,279.2288,80.8345,0.00083137,0.00010817,0.0,0 STARLINK-3047,1 49174U 21082AW  24021.55318425  .00010817  00000-0  83137-3 0  9992,2 49174  69.9986  74.8422 0004660 279.2288  80.8345 15.01923802131122,6939.102,95.877,564.2,557.733,0.0
49174.0,STARLINK-3047,PAYLOAD,2024-01-22 06:51:31,15.01937984,0.0004676,69.9986,72.9846,279.0877,80.9754,0.00075709,9.844e-05,0.0,0 STARLINK-3047,1 49174U 21082AW  24022.28578384  .00009844  00000-0  75709-3 0  9999,2 49174  69.9986  72.9846 0004676 279.0877  80.9754 15.01937984131233,6939.058,95.876,564.168,557.678,0.0
49174.0,STARLINK-3047,PAYLOAD,2024-01-22 13:15:08,15.01943026,0.000466,69.9986,72.3092,278.9953,81.068,0.00077134,0.00010033,0.0,0 STARLINK-3047,1 49174U 21082AW  24022.55218233  .00010033  00000-0  77134-3 0  9999,2 49174  69.9986  72.3092 0004660 278.9953  81.0680 15.01943026131274,6939.042,95.876,564.141,557.674,0.0
